STARLINK-36362          
1 67424U 26005W   26032.91668981  .00041686  00000+0  71372-3 0  9994
2 67424  43.0004  83.4075 0001485 268.9094 185.9198 15.50534658  4433
STARLINK-36447          
1 67425U 26005X   26032.91668981  .00041709  00000+0  71418-3 0  9992
2 67425  43.0004  83.4017 0001101 275.4619 181.2857 15.50532361  4431
STARLINK-36146          
1 67426U 26005Y   26032.91668981  .00041748  00000+0  71478-3 0  9992
2 67426  43.0006  83.3975 0001440 266.1250 192.5395 15.50534376  4384
STARLINK-36459          
1 67427U 26005Z   26032.91668981  .00039110  00000+0  67021-3 0  9992
2 67427  43.0007  83.3914 0001487 265.8445 194.7379 15.50534619  4355
STARLINK-36464          
1 67428U 26005AA  26032.91668981  .00046927  00000+0  80240-3 0  9995
2 67428  43.0007  83.3823 0001442 265.0499 199.3712 15.50527275  4438
STARLINK-36513          
1 67429U 26005AB  26032.91668981  .00042411  00000+0  72609-3 0  9990
2 67429  43.0007  83.3769 0001038 274.2987 192.0368 15.50530458  4437
STARLINK-36515          
1 67430U 26005AC  26032.91668981  .00046677  00000+0  79805-3 0  9995
2 67430  43.0006  83.3877 0001445 272.0395 190.4575 15.50531836  4353
STARLINK-36443          
1 67431U 26005AD  26032.91668981  .00039989  00000+0  68503-3 0  9997
2 67431  43.0005  83.3715 0000857 283.1852 185.0586 15.50535670  4386
STARLINK-36460          
1 67432U 26005AE  26032.91668981  .00040778  00000+0  69837-3 0  9997
2 67432  43.0006  83.3676 0001294 264.8301 205.3335 15.50535326  4437
YAOGAN-50 01            
1 67433U 26006A   26032.67065516  .00000359  00000+0  15441-3 0  9990
2 67433 142.0316 280.8867 0000661 266.2833  93.7810 13.83253153  2660
CZ-6A R/B               
1 67434U 26006B   26032.70165034  .00001437  00000+0  16157-3 0  9994
2 67434 142.0437 292.6858 0203281 221.9751 136.5234 14.62290837  2806
HULIANWANG DIGUI-137    
1 67435U 26007A   26032.02760062  .00000017  00000+0  14680-3 0  9995
2 67435  50.0080 221.3687 0000526 259.3583 100.7253 13.82639757  2569
