CCSDS_OMM_VERS = 2.0
CREATION_DATE  = 
ORIGINATOR     = 

OBJECT_NAME    = STARLINK-36362
OBJECT_ID      = 2026-005W
CENTER_NAME    = EARTH
REF_FRAME      = TEME
TIME_SYSTEM    = UTC
MEAN_ELEMENT_THEORY = SGP/SGP4

EPOCH          = 2026-02-01T22:00:01.999584
MEAN_MOTION    = 15.50534658
ECCENTRICITY   = .0001485
INCLINATION    = 43.0004
RA_OF_ASC_NODE = 83.4075
ARG_OF_PERICENTER = 268.9094
MEAN_ANOMALY   = 185.9198

EPHEMERIS_TYPE = 0
CLASSIFICATION_TYPE = U
NORAD_CAT_ID   = 67424
ELEMENT_SET_NO = 999
REV_AT_EPOCH   = 443
BSTAR          = .7137204E-3
MEAN_MOTION_DOT = .41686E-3
MEAN_MOTION_DDOT = 0

CCSDS_OMM_VERS = 2.0
CREATION_DATE  = 
ORIGINATOR     = 

OBJECT_NAME    = STARLINK-36447
OBJECT_ID      = 2026-005X
CENTER_NAME    = EARTH
REF_FRAME      = TEME
TIME_SYSTEM    = UTC
MEAN_ELEMENT_THEORY = SGP/SGP4

EPOCH          = 2026-02-01T22:00:01.999584
MEAN_MOTION    = 15.50532361
ECCENTRICITY   = .00011013
INCLINATION    = 43.0004
RA_OF_ASC_NODE = 83.4017
ARG_OF_PERICENTER = 275.4619
MEAN_ANOMALY   = 181.2857

EPHEMERIS_TYPE = 0
CLASSIFICATION_TYPE = U
NORAD_CAT_ID   = 67425
ELEMENT_SET_NO = 999
REV_AT_EPOCH   = 443
BSTAR          = .71417689E-3
MEAN_MOTION_DOT = .41709E-3
MEAN_MOTION_DDOT = 0

CCSDS_OMM_VERS = 2.0
CREATION_DATE  = 
ORIGINATOR     = 

OBJECT_NAME    = STARLINK-36146
OBJECT_ID      = 2026-005Y
CENTER_NAME    = EARTH
REF_FRAME      = TEME
TIME_SYSTEM    = UTC
MEAN_ELEMENT_THEORY = SGP/SGP4

EPOCH          = 2026-02-01T22:00:01.999584
MEAN_MOTION    = 15.50534376
ECCENTRICITY   = .00014409
INCLINATION    = 43.0006
RA_OF_ASC_NODE = 83.3975
ARG_OF_PERICENTER = 266.1250
MEAN_ANOMALY   = 192.5395

EPHEMERIS_TYPE = 0
CLASSIFICATION_TYPE = U
NORAD_CAT_ID   = 67426
ELEMENT_SET_NO = 999
REV_AT_EPOCH   = 438
BSTAR          = .71478216E-3
MEAN_MOTION_DOT = .41748E-3
MEAN_MOTION_DDOT = 0

CCSDS_OMM_VERS = 2.0
CREATION_DATE  = 
ORIGINATOR     = 

OBJECT_NAME    = STARLINK-36459
OBJECT_ID      = 2026-005Z
CENTER_NAME    = EARTH
REF_FRAME      = TEME
TIME_SYSTEM    = UTC
MEAN_ELEMENT_THEORY = SGP/SGP4

EPOCH          = 2026-02-01T22:00:01.999584
MEAN_MOTION    = 15.50534619
ECCENTRICITY   = .00014878
INCLINATION    = 43.0007
RA_OF_ASC_NODE = 83.3914
ARG_OF_PERICENTER = 265.8445
MEAN_ANOMALY   = 194.7379

EPHEMERIS_TYPE = 0
CLASSIFICATION_TYPE = U
NORAD_CAT_ID   = 67427
ELEMENT_SET_NO = 999
REV_AT_EPOCH   = 435
BSTAR          = .67020533E-3
MEAN_MOTION_DOT = .3911E-3
MEAN_MOTION_DDOT = 0

CCSDS_OMM_VERS = 2.0
CREATION_DATE  = 
ORIGINATOR     = 

OBJECT_NAME    = STARLINK-36464
OBJECT_ID      = 2026-005AA
CENTER_NAME    = EARTH
REF_FRAME      = TEME
TIME_SYSTEM    = UTC
MEAN_ELEMENT_THEORY = SGP/SGP4

EPOCH          = 2026-02-01T22:00:01.999584
MEAN_MOTION    = 15.50527275
ECCENTRICITY   = .00014421
INCLINATION    = 43.0007
RA_OF_ASC_NODE = 83.3823
ARG_OF_PERICENTER = 265.0499
MEAN_ANOMALY   = 199.3712

EPHEMERIS_TYPE = 0
CLASSIFICATION_TYPE = U
NORAD_CAT_ID   = 67428
ELEMENT_SET_NO = 999
REV_AT_EPOCH   = 443
BSTAR          = .80239937E-3
MEAN_MOTION_DOT = .46927E-3
MEAN_MOTION_DDOT = 0

CCSDS_OMM_VERS = 2.0
CREATION_DATE  = 
ORIGINATOR     = 

OBJECT_NAME    = STARLINK-36513
OBJECT_ID      = 2026-005AB
CENTER_NAME    = EARTH
REF_FRAME      = TEME
TIME_SYSTEM    = UTC
MEAN_ELEMENT_THEORY = SGP/SGP4

EPOCH          = 2026-02-01T22:00:01.999584
MEAN_MOTION    = 15.50530458
ECCENTRICITY   = .00010389
INCLINATION    = 43.0007
RA_OF_ASC_NODE = 83.3769
ARG_OF_PERICENTER = 274.2987
MEAN_ANOMALY   = 192.0368

EPHEMERIS_TYPE = 0
CLASSIFICATION_TYPE = U
NORAD_CAT_ID   = 67429
ELEMENT_SET_NO = 999
REV_AT_EPOCH   = 443
BSTAR          = .72608698E-3
MEAN_MOTION_DOT = .42411E-3
MEAN_MOTION_DDOT = 0

CCSDS_OMM_VERS = 2.0
CREATION_DATE  = 
ORIGINATOR     = 

OBJECT_NAME    = STARLINK-36515
OBJECT_ID      = 2026-005AC
CENTER_NAME    = EARTH
REF_FRAME      = TEME
TIME_SYSTEM    = UTC
MEAN_ELEMENT_THEORY = SGP/SGP4

EPOCH          = 2026-02-01T22:00:01.999584
MEAN_MOTION    = 15.50531836
ECCENTRICITY   = .00014455
INCLINATION    = 43.0006
RA_OF_ASC_NODE = 83.3877
ARG_OF_PERICENTER = 272.0395
MEAN_ANOMALY   = 190.4575

EPHEMERIS_TYPE = 0
CLASSIFICATION_TYPE = U
NORAD_CAT_ID   = 67430
ELEMENT_SET_NO = 999
REV_AT_EPOCH   = 435
BSTAR          = .79805012E-3
MEAN_MOTION_DOT = .46677E-3
MEAN_MOTION_DDOT = 0

CCSDS_OMM_VERS = 2.0
CREATION_DATE  = 
ORIGINATOR     = 

OBJECT_NAME    = STARLINK-36443
OBJECT_ID      = 2026-005AD
CENTER_NAME    = EARTH
REF_FRAME      = TEME
TIME_SYSTEM    = UTC
MEAN_ELEMENT_THEORY = SGP/SGP4

EPOCH          = 2026-02-01T22:00:01.999584
MEAN_MOTION    = 15.50535670
ECCENTRICITY   = .0000857
INCLINATION    = 43.0005
RA_OF_ASC_NODE = 83.3715
ARG_OF_PERICENTER = 283.1852
MEAN_ANOMALY   = 185.0586

EPHEMERIS_TYPE = 0
CLASSIFICATION_TYPE = U
NORAD_CAT_ID   = 67431
ELEMENT_SET_NO = 999
REV_AT_EPOCH   = 438
BSTAR          = .68503071E-3
MEAN_MOTION_DOT = .39989E-3
MEAN_MOTION_DDOT = 0

CCSDS_OMM_VERS = 2.0
CREATION_DATE  = 
ORIGINATOR     = 

OBJECT_NAME    = STARLINK-36460
OBJECT_ID      = 2026-005AE
CENTER_NAME    = EARTH
REF_FRAME      = TEME
TIME_SYSTEM    = UTC
MEAN_ELEMENT_THEORY = SGP/SGP4

EPOCH          = 2026-02-01T22:00:01.999584
MEAN_MOTION    = 15.50535326
ECCENTRICITY   = .0001294
INCLINATION    = 43.0006
RA_OF_ASC_NODE = 83.3676
ARG_OF_PERICENTER = 264.8301
MEAN_ANOMALY   = 205.3335

EPHEMERIS_TYPE = 0
CLASSIFICATION_TYPE = U
NORAD_CAT_ID   = 67432
ELEMENT_SET_NO = 999
REV_AT_EPOCH   = 443
BSTAR          = .69836978E-3
MEAN_MOTION_DOT = .40778E-3
MEAN_MOTION_DDOT = 0

CCSDS_OMM_VERS = 2.0
CREATION_DATE  = 
ORIGINATOR     = 

OBJECT_NAME    = YAOGAN-50 01
OBJECT_ID      = 2026-006A
CENTER_NAME    = EARTH
REF_FRAME      = TEME
TIME_SYSTEM    = UTC
MEAN_ELEMENT_THEORY = SGP/SGP4

EPOCH          = 2026-02-01T16:05:44.605824
MEAN_MOTION    = 13.83253153
ECCENTRICITY   = .00006619
INCLINATION    = 142.0316
RA_OF_ASC_NODE = 280.8867
ARG_OF_PERICENTER = 266.2833
MEAN_ANOMALY   = 93.7810

EPHEMERIS_TYPE = 0
CLASSIFICATION_TYPE = U
NORAD_CAT_ID   = 67433
ELEMENT_SET_NO = 999
REV_AT_EPOCH   = 266
BSTAR          = .1544099E-3
MEAN_MOTION_DOT = .359E-5
MEAN_MOTION_DDOT = 0

CCSDS_OMM_VERS = 2.0
CREATION_DATE  = 
ORIGINATOR     = 

OBJECT_NAME    = CZ-6A R/B
OBJECT_ID      = 2026-006B
CENTER_NAME    = EARTH
REF_FRAME      = TEME
TIME_SYSTEM    = UTC
MEAN_ELEMENT_THEORY = SGP/SGP4

EPOCH          = 2026-02-01T16:50:22.589376
MEAN_MOTION    = 14.62290837
ECCENTRICITY   = .0203281
INCLINATION    = 142.0437
RA_OF_ASC_NODE = 292.6858
ARG_OF_PERICENTER = 221.9751
MEAN_ANOMALY   = 136.5234

EPHEMERIS_TYPE = 0
CLASSIFICATION_TYPE = U
NORAD_CAT_ID   = 67434
ELEMENT_SET_NO = 999
REV_AT_EPOCH   = 280
BSTAR          = .16156929E-3
MEAN_MOTION_DOT = .1437E-4
MEAN_MOTION_DDOT = 0

CCSDS_OMM_VERS = 2.0
CREATION_DATE  = 
ORIGINATOR     = 

OBJECT_NAME    = HULIANWANG DIGUI-137
OBJECT_ID      = 2026-007A
CENTER_NAME    = EARTH
REF_FRAME      = TEME
TIME_SYSTEM    = UTC
MEAN_ELEMENT_THEORY = SGP/SGP4

EPOCH          = 2026-02-01T00:39:44.693568
MEAN_MOTION    = 13.82639757
ECCENTRICITY   = .0000526
INCLINATION    = 50.0080
RA_OF_ASC_NODE = 221.3687
ARG_OF_PERICENTER = 259.3583
MEAN_ANOMALY   = 100.7253

EPHEMERIS_TYPE = 0
CLASSIFICATION_TYPE = U
NORAD_CAT_ID   = 67435
ELEMENT_SET_NO = 999
REV_AT_EPOCH   = 256
BSTAR          = .14679693E-3
MEAN_MOTION_DOT = .17E-6
MEAN_MOTION_DDOT = 0

